MEAN_MOTION;ECCENTRICITY;INCLINATION;RA_OF_ASC_NODE;ARG_OF_PERICENTER;MEAN_ANOMALY;BSTAR;MEAN_MOTION_DOT;MEAN_MOTION_DDOT;TYPE
11.90189236;0.0005871;51.9991;333.6347;317.2862;86.8049;0.00027453;-6.4E-7;0;Globalstar
11.90189241;0.0005872;51.9991;333.3901;317.474;121.6143;0.00028294;-6.3E-7;0;Globalstar
11.90189299;0.0005867;51.9989;330.9316;319.4377;129.9602;0.00036075;-5.8E-7;0;Globalstar
11.90189306;0.0005867;51.9989;330.714;319.5921;121.1719;0.00037954;-5.6E-7;0;Globalstar
11.90189398;0.0005867;51.9987;328.0384;321.679;119.9262;0.00051428;-4.7E-7;0;Globalstar
11.90189422;0.0005875;51.9987;327.335;322.2559;175.3448;0.00055758;-4.4E-7;0;Globalstar
11.90189461;0.0005875;51.9986;325.8351;323.4161;76.3811;0.00057191;-4.3E-7;0;Globalstar
11.90189477;0.0005877;51.9985;324.6381;324.3734;208.5264;0.00058223;-4.2E-7;0;Globalstar
11.90189515;0.0005879;51.9984;323.3924;325.3362;59.1396;0.00060365;-4.0E-7;0;Globalstar
11.90189521;0.0005882;51.9982;320.4839;327.5946;73.8491;0.00050004;-4.8E-7;0;Globalstar
11.9018964;0.0005877;51.998;317.5614;329.8774;111.0278;0.00055053;-4.4E-7;0;Globalstar
11.90189636;0.000588;51.998;317.3272;330.0654;129.1478;0.00053689;-4.5E-7;0;Globalstar
11.90189667;0.0005879;51.9978;314.8871;332.0001;107.6985;0.0004246;-5.3E-7;0;Globalstar
11.9018967;0.0005882;51.9977;314.634;332.2041;156.325;0.00042906;-5.3E-7;0;Globalstar
11.90189701;0.000588;51.9975;312.2091;334.1295;110.3042;0.0003205;-6.1E-7;0;Globalstar
11.901897;0.0005878;51.9975;311.9736;334.3083;130.4043;0.00030394;-6.2E-7;0;Globalstar
11.90189732;0.0005881;51.9973;309.7609;336.0207;102.0098;0.00021726;-6.8E-7;0;Globalstar
11.90189742;0.0005882;51.9972;308.8264;336.7459;170.4196;0.0002122;-6.8E-7;0;Globalstar
11.90189743;0.0005882;51.9971;306.8686;338.2305;90.3732;0.00017165;-7.1E-7;0;Globalstar
11.90189738;0.0005895;51.997;306.1482;338.7929;173.2329;0.00014499;-7.3E-7;0;Globalstar
11.90189753;0.0005896;51.9968;304.1742;340.2988;119.4918;0.00016488;-7.2E-7;0;Globalstar
11.9018976;0.0005897;51.9968;303.686;340.6872;187.4576;0.00018491;-7.0E-7;0;Globalstar
11.90189705;0.0005906;51.9969;301.7334;341.9472;98.6122;0.00013065;-7.4E-7;0;Globalstar
11.90189705;0.000591;51.9969;301.4972;342.1213;119.7918;0.00012833;-7.4E-7;0;Globalstar
11.90189703;0.000591;51.9969;301.2453;342.3197;166.5307;0.00012391;-7.5E-7;0;Globalstar
11.90189727;0.0005915;51.9968;298.82;344.2008;121.1991;0.0001212;-7.5E-7;0;Globalstar
11.9018972;0.0005916;51.9968;298.5681;344.3999;167.738;0.00011052;-7.6E-7;0;Globalstar
11.90189723;0.0005914;51.9967;296.5973;345.8592;108.6496;8.0529E-5;-7.8E-7;0;Globalstar
11.9018968;0.0005917;51.9965;293.6938;348.0129;115.0719;-1.549E-5;-8.5E-7;0;Globalstar
11.90189694;0.0005926;51.9965;292.9949;348.5455;163.1722;8.1478E-6;-8.3E-7;0;Globalstar
11.90189714;0.0005927;51.9964;290.7671;350.1733;158.8978;3.3153E-5;-8.1E-7;0;Globalstar
11.90189724;0.0005932;51.9964;289.2866;351.2464;28.5946;4.6009E-5;-8.0E-7;0;Globalstar
11.90189724;0.0005935;51.9964;288.0918;352.144;156.9982;4.1529E-5;-8.1E-7;0;Globalstar
11.9018971;0.0005943;51.9963;286.6141;353.2469;22.0414;1.6818E-5;-8.2E-7;0;Globalstar
11.90189729;0.000594;51.9963;286.3745;353.403;48.8423;3.731E-5;-8.1E-7;0;Globalstar
11.90189704;0.0005942;51.9963;285.6467;353.9587;143.4793;1.0374E-5;-8.3E-7;0;Globalstar
11.90189687;0.0005957;51.9961;281.4912;356.9808;10.6708;-1.8909E-5;-8.5E-7;0;Globalstar
11.90189677;0.0005964;51.9961;280.5433;357.6918;100.5478;-3.0042E-5;-8.6E-7;0;Globalstar
11.90189677;0.0005967;51.996;278.8106;358.9237;17.3588;-2.9361E-5;-8.6E-7;0;Globalstar
11.90189726;0.0005963;51.996;277.4884;359.8994;351.5415;2.9214E-5;-8.2E-7;0;Globalstar
11.90189731;0.0005968;51.996;275.1894;1.5463;102.2672;1.5516E-5;-8.3E-7;0;Globalstar
11.90189733;0.0005971;51.996;274.9668;1.7166;101.4519;2.3862E-5;-8.2E-7;0;Globalstar
11.90189744;0.0005982;51.996;272.5224;3.4677;86.968;2.5431E-5;-8.2E-7;0;Globalstar
11.90189725;0.0005983;51.9957;272.2896;3.8088;102.5304;-0.00014681;-9.4E-7;0;Globalstar
11.90189723;0.000598;51.9957;270.2997;5.2328;74.4295;-0.00011064;-9.2E-7;0;Globalstar
11.90189685;0.0005986;51.9956;268.0984;6.7893;27.3796;-7.4703E-5;-8.9E-7;0;Globalstar
11.90189729;0.0005983;51.9959;266.9581;7.4276;68.2583;-4.9836E-5;-8.7E-7;0;Globalstar
11.90189742;0.0005988;51.996;264.5144;9.1645;52.631;-3.5109E-5;-8.6E-7;0;Globalstar
11.90189685;0.0006021;51.9961;261.8377;11.1826;53.1793;-0.00010209;-9.1E-7;0;Globalstar
11.90189684;0.0006023;51.996;261.5426;11.4024;169.3983;-0.00010321;-9.1E-7;0;Globalstar
11.90189665;0.0006032;51.996;259.1609;13.0491;53.6491;-0.000109;-9.1E-7;0;Globalstar
11.90189668;0.0006037;51.996;258.9266;13.2386;71.6675;-0.00010302;-9.1E-7;0;Globalstar
11.90189655;0.0006026;51.996;256.444;14.8938;119.0661;-0.00011041;-9.2E-7;0;Globalstar
11.90189641;0.0006025;51.996;256.2104;15.0421;136.2153;-0.00013372;-9.3E-7;0;Globalstar
11.90189639;0.0006029;51.9961;253.7674;16.7273;119.5913;-0.00011122;-9.2E-7;0;Globalstar
11.90189622;0.0006038;51.9961;252.0218;17.9702;57.0853;-0.00011922;-9.2E-7;0;Globalstar
11.90189599;0.0006042;51.9961;251.1297;18.6043;57.1012;-0.000133;-9.3E-7;0;Globalstar
11.90189575;0.0006049;51.9961;249.345;19.8756;57.8142;-0.00014871;-9.4E-7;0;Globalstar
11.90189559;0.000605;51.9961;248.6326;20.3864;127.6513;-0.00016917;-9.6E-7;0;Globalstar
11.90189561;0.0006056;51.9962;245.7342;22.3457;126.2266;-0.00012681;-9.3E-7;0;Globalstar
11.90189531;0.0006063;51.9962;243.313;24.0281;74.3522;-0.00015088;-9.4E-7;0;Globalstar
11.90189493;0.000609;51.9962;242.8826;24.4421;49.0544;-0.0001824;-9.7E-7;0;Globalstar
11.90189492;0.0006066;51.9963;240.6134;25.8556;112.0703;-0.00019107;-9.7E-7;0;Globalstar
11.90189499;0.0006062;51.9963;240.0971;26.2323;225.4149;-0.00017952;-9.7E-7;0;Globalstar
11.90189465;0.000607;51.9964;237.931;27.7418;122.0216;-0.00020888;-9.9E-7;0;Globalstar
11.90189439;0.0006072;51.9964;236.1923;28.9261;48.6381;-0.00024226;-1.01E-6;0;Globalstar
11.90189448;0.0006069;51.9964;235.2566;29.5591;118.9567;-0.00020579;-9.8E-7;0;Globalstar
11.90189405;0.0006074;51.9964;233.5162;30.7431;48.4538;-0.00026167;-1.02E-6;0;Globalstar
11.90189395;0.0006074;51.9964;233.0721;31.0389;45.2866;-0.00026173;-1.02E-6;0;Globalstar
11.90189331;0.0006084;51.9964;230.8401;32.575;48.2967;-0.00031501;-1.06E-6;0;Globalstar
11.90189326;0.0006083;51.9964;230.606;32.7184;66.1026;-0.00031342;-1.06E-6;0;Globalstar
11.90189286;0.0006091;51.9964;228.3927;34.2187;38.8482;-0.00030993;-1.06E-6;0;Globalstar
11.90189265;0.0006093;51.9964;227.485;34.845;64.1326;-0.00030647;-1.06E-6;0;Globalstar
11.90189208;0.0006089;51.9964;225.4877;36.1529;48.3461;-0.00035012;-1.09E-6;0;Globalstar
11.90189197;0.0006086;51.9964;225.2527;36.2881;67.7329;-0.0003533;-1.09E-6;0;Globalstar
11.9018913;0.000609;51.9964;223.0396;37.7674;40.2196;-0.00038298;-1.11E-6;0;Globalstar
11.90189108;0.000609;51.9964;222.1307;38.3118;67.4533;-0.00037519;-1.11E-6;0;Globalstar
11.90189079;0.0006092;51.9965;220.3632;39.5025;40.7534;-0.00035795;-1.09E-6;0;Globalstar
11.90189003;0.0006093;51.9964;219.4272;40.0382;111.6868;-0.00044126;-1.15E-6;0;Globalstar
11.90188992;0.000609;51.9964;217.6877;41.177;39.6484;-0.00039849;-1.12E-6;0;Globalstar
11.90188979;0.0006087;51.9964;217.2311;41.4799;56.8642;-0.00039708;-1.12E-6;0;Globalstar
11.90188927;0.0006086;51.9964;215.0128;42.9113;37.7428;-0.00039787;-1.12E-6;0;Globalstar
11.90188914;0.0006079;51.9964;214.5547;43.2313;57.1618;-0.00040296;-1.13E-6;0;Globalstar
11.90188838;0.0006078;51.9963;212.3463;44.6796;22.1807;-0.00045862;-1.17E-6;0;Globalstar
11.90188836;0.0006079;51.9963;212.0993;44.842;60.9011;-0.00045438;-1.16E-6;0;Globalstar
11.90188781;0.0006081;51.9963;209.6733;46.433;17.1581;-0.00045596;-1.16E-6;0;Globalstar
11.90188785;0.0006081;51.9962;209.2104;46.6891;44.2518;-0.00041552;-1.13E-6;0;Globalstar
11.90188722;0.0006076;51.9962;206.9738;48.1489;54.8171;-0.00043721;-1.15E-6;0;Globalstar
11.90188722;0.0006076;51.9962;206.9738;48.1489;54.8171;-0.00043721;-1.15E-6;0;Globalstar
11.90188661;0.0006073;51.9961;204.3006;49.9031;49.9275;-0.00042219;-1.14E-6;0;Globalstar
11.90188603;0.0006072;51.9959;201.6238;51.6854;50.8558;-0.00040837;-1.13E-6;0;Globalstar
11.90188593;0.0006073;51.9959;201.149;51.9944;97.3527;-0.00040543;-1.13E-6;0;Globalstar
11.90188528;0.0006071;51.9958;198.946;53.4743;53.5388;-0.0004177;-1.14E-6;0;Globalstar
11.90188513;0.0006071;51.9958;198.4745;53.7602;94.6855;-0.00042417;-1.14E-6;0;Globalstar
11.90188445;0.0006072;51.9957;195.7995;55.4549;93.0143;-0.00041477;-1.13E-6;0;Globalstar
11.90188415;0.0006068;51.9955;193.1205;57.1541;97.5602;-0.00034861;-1.09E-6;0;Globalstar
11.90188365;0.0006059;51.9953;189.1787;59.6128;340.6101;-0.00027779;-1.04E-6;0;Globalstar
11.90188375;0.0006059;51.9953;187.996;60.3555;89.8491;-0.0002194;-9.9E-7;0;Globalstar
11.90188369;0.0006056;51.9952;185.8038;61.7551;28.5836;-0.00017945;-9.7E-7;0;Globalstar
11.90188363;0.0006057;51.9952;185.3226;62.0303;85.4496;-0.00018274;-9.7E-7;0;Globalstar
11.90188349;0.0006053;51.9951;182.8878;63.5754;55.8022;-0.00015329;-9.5E-7;0;Globalstar
11.90188346;0.0006053;51.9951;182.6457;63.7142;86.6912;-0.00015739;-9.5E-7;0;Globalstar
11.90188337;0.0006052;51.995;180.4491;65.1247;32.4239;-0.00014063;-9.4E-7;0;Globalstar
11.90188334;0.0006051;51.9949;179.9666;65.4174;91.3307;-0.00012765;-9.3E-7;0;Globalstar
11.90188326;0.000605;51.9948;177.5255;66.99;71.8908;-0.00011568;-9.2E-7;0;Globalstar
11.90188314;0.0006049;51.9948;176.2648;67.7883;306.9793;-0.00013205;-9.3E-7;0;Globalstar
11.90188341;0.0006052;51.9947;174.8437;68.7008;80.9248;-7.8859E-5;-8.9E-7;0;Globalstar
11.9018834;0.000605;51.9947;173.3108;69.688;35.3739;-8.6538E-5;-9.0E-7;0;Globalstar
11.90188364;0.000605;51.9946;172.1702;70.3703;76.5859;-3.8267E-5;-8.6E-7;0;Globalstar
11.90188387;0.0006045;51.9946;170.212;71.6322;357.5494;1.2607E-5;-8.3E-7;0;Globalstar
11.90188387;0.0006043;51.994;169.4925;72.0804;79.1419;0.00031172;-6.1E-7;0;Globalstar
11.9018843;0.000604;51.994;167.2648;73.5161;74.9701;0.00039254;-5.6E-7;0;Globalstar
